{
"type": "FeatureCollection",
"name": "station_hf_lrt_3",
"crs": { "type": "name", "properties": { "name": "urn:ogc:def:crs:OGC:1.3:CRS84" } },
"features": [
{ "type": "Feature", "properties": { "id": null, "halufa": 999 }, "geometry": { "type": "Point", "coordinates": [ 34.962248220750034, 32.789697826066778 ] } },
{ "type": "Feature", "properties": { "id": null, "halufa": 999 }, "geometry": { "type": "Point", "coordinates": [ 34.962453205448718, 32.789699219781376 ] } },
{ "type": "Feature", "properties": { "id": null, "halufa": 999 }, "geometry": { "type": "Point", "coordinates": [ 34.962781092061476, 32.782687593557206 ] } },
{ "type": "Feature", "properties": { "id": null, "halufa": 999 }, "geometry": { "type": "Point", "coordinates": [ 34.963000971592102, 32.782706456756429 ] } },
{ "type": "Feature", "properties": { "id": null, "halufa": 999 }, "geometry": { "type": "Point", "coordinates": [ 34.963175977749145, 32.772763109915815 ] } },
{ "type": "Feature", "properties": { "id": null, "halufa": 999 }, "geometry": { "type": "Point", "coordinates": [ 34.963285501675571, 32.772761297019734 ] } },
{ "type": "Feature", "properties": { "id": null, "halufa": null }, "geometry": { "type": "Point", "coordinates": [ 35.035095047379599, 32.794187149181617 ] } },
{ "type": "Feature", "properties": { "id": null, "halufa": null }, "geometry": { "type": "Point", "coordinates": [ 35.024966345796422, 32.795599053070106 ] } },
{ "type": "Feature", "properties": { "id": null, "halufa": null }, "geometry": { "type": "Point", "coordinates": [ 35.018145656336287, 32.798743051338278 ] } },
{ "type": "Feature", "properties": { "id": null, "halufa": null }, "geometry": { "type": "Point", "coordinates": [ 35.018172932275142, 32.798655639944513 ] } },
{ "type": "Feature", "properties": { "id": null, "halufa": 2 }, "geometry": { "type": "Point", "coordinates": [ 34.999679377598532, 32.817370171300432 ] } },
{ "type": "Feature", "properties": { "id": null, "halufa": 2 }, "geometry": { "type": "Point", "coordinates": [ 34.999592678875814, 32.817270557974922 ] } },
{ "type": "Feature", "properties": { "id": null, "halufa": null }, "geometry": { "type": "Point", "coordinates": [ 34.970334345014372, 32.830861634764929 ] } },
{ "type": "Feature", "properties": { "id": null, "halufa": null }, "geometry": { "type": "Point", "coordinates": [ 34.970320707044948, 32.830749903198445 ] } },
{ "type": "Feature", "properties": { "id": null, "halufa": null }, "geometry": { "type": "Point", "coordinates": [ 34.995017364932728, 32.81976657717496 ] } },
{ "type": "Feature", "properties": { "id": null, "halufa": null }, "geometry": { "type": "Point", "coordinates": [ 34.994915080162016, 32.819619015921191 ] } },
{ "type": "Feature", "properties": { "id": null, "halufa": null }, "geometry": { "type": "Point", "coordinates": [ 34.990752089994153, 32.82168055561845 ] } },
{ "type": "Feature", "properties": { "id": null, "halufa": null }, "geometry": { "type": "Point", "coordinates": [ 34.990673796154837, 32.821525038848328 ] } },
{ "type": "Feature", "properties": { "id": null, "halufa": 2 }, "geometry": { "type": "Point", "coordinates": [ 35.010919703766454, 32.803353818411516 ] } },
{ "type": "Feature", "properties": { "id": null, "halufa": 2 }, "geometry": { "type": "Point", "coordinates": [ 35.011025701699687, 32.803141818888967 ] } },
{ "type": "Feature", "properties": { "id": null, "halufa": 2 }, "geometry": { "type": "Point", "coordinates": [ 34.984025238722445, 32.825056488077863 ] } },
{ "type": "Feature", "properties": { "id": null, "halufa": 2 }, "geometry": { "type": "Point", "coordinates": [ 34.984120140345858, 32.825064462942059 ] } },
{ "type": "Feature", "properties": { "id": null, "halufa": 2 }, "geometry": { "type": "Point", "coordinates": [ 34.983999505493792, 32.82817712994737 ] } },
{ "type": "Feature", "properties": { "id": null, "halufa": 2 }, "geometry": { "type": "Point", "coordinates": [ 34.983941170108118, 32.828186556591078 ] } },
{ "type": "Feature", "properties": { "id": null, "halufa": 2 }, "geometry": { "type": "Point", "coordinates": [ 34.959943973015797, 32.825969047759401 ] } },
{ "type": "Feature", "properties": { "id": null, "halufa": 2 }, "geometry": { "type": "Point", "coordinates": [ 34.960137388192912, 32.82654245321698 ] } },
{ "type": "Feature", "properties": { "id": null, "halufa": null }, "geometry": { "type": "Point", "coordinates": [ 34.956945268528415, 32.822445562412945 ] } },
{ "type": "Feature", "properties": { "id": null, "halufa": null }, "geometry": { "type": "Point", "coordinates": [ 34.956457605180283, 32.822248381285938 ] } },
{ "type": "Feature", "properties": { "id": null, "halufa": 1 }, "geometry": { "type": "Point", "coordinates": [ 34.968455330152878, 32.767705177868052 ] } },
{ "type": "Feature", "properties": { "id": null, "halufa": 1 }, "geometry": { "type": "Point", "coordinates": [ 34.96830276068264, 32.767580659690701 ] } },
{ "type": "Feature", "properties": { "id": null, "halufa": 1 }, "geometry": { "type": "Point", "coordinates": [ 34.964163060982074, 32.760884541116503 ] } },
{ "type": "Feature", "properties": { "id": null, "halufa": 1 }, "geometry": { "type": "Point", "coordinates": [ 34.963891708058014, 32.760045099134871 ] } },
{ "type": "Feature", "properties": { "id": null, "halufa": 999 }, "geometry": { "type": "Point", "coordinates": [ 34.966566161124426, 32.749553872823711 ] } },
{ "type": "Feature", "properties": { "id": null, "halufa": 999 }, "geometry": { "type": "Point", "coordinates": [ 34.966296920882847, 32.749542550688936 ] } },
{ "type": "Feature", "properties": { "id": null, "halufa": 2 }, "geometry": { "type": "Point", "coordinates": [ 34.959578255020965, 32.808702744849064 ] } },
{ "type": "Feature", "properties": { "id": null, "halufa": 2 }, "geometry": { "type": "Point", "coordinates": [ 34.959389786851851, 32.808732917137206 ] } },
{ "type": "Feature", "properties": { "id": null, "halufa": null }, "geometry": { "type": "Point", "coordinates": [ 34.96143508892488, 32.799676721299342 ] } },
{ "type": "Feature", "properties": { "id": null, "halufa": null }, "geometry": { "type": "Point", "coordinates": [ 34.961134096328337, 32.799426763959374 ] } },
{ "type": "Feature", "properties": { "id": null, "halufa": null }, "geometry": { "type": "Point", "coordinates": [ 34.960671223789326, 32.795088588447577 ] } },
{ "type": "Feature", "properties": { "id": null, "halufa": null }, "geometry": { "type": "Point", "coordinates": [ 34.960860701894369, 32.795097777548932 ] } },
{ "type": "Feature", "properties": { "id": null, "halufa": null }, "geometry": { "type": "Point", "coordinates": [ 34.958284528427768, 32.818830056960472 ] } },
{ "type": "Feature", "properties": { "id": null, "halufa": null }, "geometry": { "type": "Point", "coordinates": [ 34.958390198909427, 32.818943358875735 ] } },
{ "type": "Feature", "properties": { "id": null, "halufa": null }, "geometry": { "type": "Point", "coordinates": [ 34.977102187342965, 32.830824390925052 ] } },
{ "type": "Feature", "properties": { "id": null, "halufa": null }, "geometry": { "type": "Point", "coordinates": [ 34.977068092419387, 32.830503520272991 ] } },
{ "type": "Feature", "properties": { "id": null, "halufa": null }, "geometry": { "type": "Point", "coordinates": [ 35.003861300308976, 32.81122931205276 ] } },
{ "type": "Feature", "properties": { "id": null, "halufa": null }, "geometry": { "type": "Point", "coordinates": [ 35.003992477458617, 32.81122931205276 ] } }
]
}
